[
    {
        "Altitude(m)": 604234.6225647217,
        "Argument of Periapsis(deg)": 0.0,
        "Eccentricity": 0.0,
        "Inclination(deg)": 60.0,
        "Latitude(deg)": 14.117311809057279,
        "Longitude(deg)": 131.7273447139415,
        "Mean Anomaly(deg)": 163.6364,
        "RAAN(deg)": 60.0,
        "Satellite Name": "Test1 274",
        "Satellite Number": 274,
        "Semi-Major Axis(m)": 6980739.136638005,
        "Time(s)": 0
    },
    {
        "Altitude(m)": 604223.450608113,
        "Argument of Periapsis(deg)": 0.00010418945913296404,
        "Eccentricity": 0.0,
        "Inclination(deg)": 60.0,
        "Latitude(deg)": 13.58244783070195,
        "Longitude(deg)": 132.01425329641208,
        "Mean Anomaly(deg)": 164.25650614546183,
        "RAAN(deg)": 59.99957995086026,
        "Satellite Name": "Test1 274",
        "Satellite Number": 274,
        "Semi-Major Axis(m)": 6980739.136638005,
        "Time(s)": 10
    }
]